STARLINK-36847          
1 67910U 26036G   26080.66336494  .00111624  00000+0  18799-2 0  9997
2 67910  43.0042 178.4878 0002629 294.5188  65.5398 15.50600933  5549
STARLINK-36736          
1 67911U 26036H   26080.91667824 -.01966504  00000+0 -49863-1 0  9993
2 67911  42.9993 176.5115 0001255 282.9962 252.0997 15.42374154  5611
STARLINK-36676          
1 67912U 26036J   26080.91667824 -.01940027  00000+0 -42302-1 0  9997
2 67912  42.9999 176.5863 0001561 286.1288 218.8076 15.46711259  5618
STARLINK-36690          
1 67913U 26036K   26080.91667824 -.01967902  00000+0 -41526-1 0  9996
2 67913  42.9999 176.5649 0000953 286.3204 226.8598 15.47699037  5613
STARLINK-36724          
1 67914U 26036L   26080.91667824 -.01937014  00000+0 -37987-1 0  9994
2 67914  43.0000 176.5095 0000908 280.8636 254.6397 15.49714837  5616
STARLINK-36723          
1 67915U 26036M   26080.91667824 -.01958597  00000+0 -44122-1 0  9993
2 67915  42.9994 176.4552 0001458 279.2973 278.7188 15.45807705  5619
STARLINK-36721          
1 67916U 26036N   26080.91667824 -.01956059  00000+0 -45884-1 0  9991
2 67916  42.9992 176.4444 0001376 275.8005 286.2758 15.44633618  5611
STARLINK-36722          
1 67917U 26036P   26080.91667824 -.01949678  00000+0 -44468-1 0  9998
2 67917  43.0000 176.2154 0001439 268.2243  26.6264 15.45435212  5619
STARLINK-36341          
1 67918U 26036Q   26080.68800009  .00113598  00000+0  19120-2 0  9996
2 67918  43.0012 178.6798 0001585 267.5258  92.5421 15.50611199  5548
STARLINK-36663          
1 67919U 26036R   26080.91667824 -.01956469  00000+0 -46879-1 0  9994
2 67919  42.9997 176.4112 0001138 278.0474 296.8991 15.44017850  5612
STARLINK-36375          
1 67920U 26036S   26080.91667824 -.01930484  00000+0 -50978-1 0  9990
2 67920  43.0002 176.8306 0001699 283.6330 121.5237 15.41102344  5614
STARLINK-36405          
1 67921U 26036T   26080.55662255  .00113966  00000+0  19151-2 0  9998
2 67921  43.0020 179.4120 0002385 267.2981  92.7606 15.50654118  5521
