CCSDS_OMM_VERS = 2.0
CREATION_DATE  = 
ORIGINATOR     = 

OBJECT_NAME    = STARLINK-36847
OBJECT_ID      = 2026-036G
CENTER_NAME    = EARTH
REF_FRAME      = TEME
TIME_SYSTEM    = UTC
MEAN_ELEMENT_THEORY = SGP/SGP4

EPOCH          = 2026-03-21T15:55:14.730816
MEAN_MOTION    = 15.50600933
ECCENTRICITY   = .00026297
INCLINATION    = 43.0042
RA_OF_ASC_NODE = 178.4878
ARG_OF_PERICENTER = 294.5188
MEAN_ANOMALY   = 65.5398

EPHEMERIS_TYPE = 0
CLASSIFICATION_TYPE = U
NORAD_CAT_ID   = 67910
ELEMENT_SET_NO = 999
REV_AT_EPOCH   = 554
BSTAR          = .1879945E-2
MEAN_MOTION_DOT = .111624E-2
MEAN_MOTION_DDOT = 0

CCSDS_OMM_VERS = 2.0
CREATION_DATE  = 
ORIGINATOR     = 

OBJECT_NAME    = STARLINK-36736
OBJECT_ID      = 2026-036H
CENTER_NAME    = EARTH
REF_FRAME      = TEME
TIME_SYSTEM    = UTC
MEAN_ELEMENT_THEORY = SGP/SGP4

EPOCH          = 2026-03-21T22:00:00.999936
MEAN_MOTION    = 15.42374154
ECCENTRICITY   = .00012552
INCLINATION    = 42.9993
RA_OF_ASC_NODE = 176.5115
ARG_OF_PERICENTER = 282.9962
MEAN_ANOMALY   = 252.0997

EPHEMERIS_TYPE = 0
CLASSIFICATION_TYPE = U
NORAD_CAT_ID   = 67911
ELEMENT_SET_NO = 999
REV_AT_EPOCH   = 561
BSTAR          = -.49863301E-1
MEAN_MOTION_DOT = -.1966504E-1
MEAN_MOTION_DDOT = 0

CCSDS_OMM_VERS = 2.0
CREATION_DATE  = 
ORIGINATOR     = 

OBJECT_NAME    = STARLINK-36676
OBJECT_ID      = 2026-036J
CENTER_NAME    = EARTH
REF_FRAME      = TEME
TIME_SYSTEM    = UTC
MEAN_ELEMENT_THEORY = SGP/SGP4

EPOCH          = 2026-03-21T22:00:00.999936
MEAN_MOTION    = 15.46711259
ECCENTRICITY   = .00015614
INCLINATION    = 42.9999
RA_OF_ASC_NODE = 176.5863
ARG_OF_PERICENTER = 286.1288
MEAN_ANOMALY   = 218.8076

EPHEMERIS_TYPE = 0
CLASSIFICATION_TYPE = U
NORAD_CAT_ID   = 67912
ELEMENT_SET_NO = 999
REV_AT_EPOCH   = 561
BSTAR          = -.42301781E-1
MEAN_MOTION_DOT = -.1940027E-1
MEAN_MOTION_DDOT = 0

CCSDS_OMM_VERS = 2.0
CREATION_DATE  = 
ORIGINATOR     = 

OBJECT_NAME    = STARLINK-36690
OBJECT_ID      = 2026-036K
CENTER_NAME    = EARTH
REF_FRAME      = TEME
TIME_SYSTEM    = UTC
MEAN_ELEMENT_THEORY = SGP/SGP4

EPOCH          = 2026-03-21T22:00:00.999936
MEAN_MOTION    = 15.47699037
ECCENTRICITY   = .0000953
INCLINATION    = 42.9999
RA_OF_ASC_NODE = 176.5649
ARG_OF_PERICENTER = 286.3204
MEAN_ANOMALY   = 226.8598

EPHEMERIS_TYPE = 0
CLASSIFICATION_TYPE = U
NORAD_CAT_ID   = 67913
ELEMENT_SET_NO = 999
REV_AT_EPOCH   = 561
BSTAR          = -.41525782E-1
MEAN_MOTION_DOT = -.1967902E-1
MEAN_MOTION_DDOT = 0

CCSDS_OMM_VERS = 2.0
CREATION_DATE  = 
ORIGINATOR     = 

OBJECT_NAME    = STARLINK-36724
OBJECT_ID      = 2026-036L
CENTER_NAME    = EARTH
REF_FRAME      = TEME
TIME_SYSTEM    = UTC
MEAN_ELEMENT_THEORY = SGP/SGP4

EPOCH          = 2026-03-21T22:00:00.999936
MEAN_MOTION    = 15.49714837
ECCENTRICITY   = .00009088
INCLINATION    = 43.0000
RA_OF_ASC_NODE = 176.5095
ARG_OF_PERICENTER = 280.8636
MEAN_ANOMALY   = 254.6397

EPHEMERIS_TYPE = 0
CLASSIFICATION_TYPE = U
NORAD_CAT_ID   = 67914
ELEMENT_SET_NO = 999
REV_AT_EPOCH   = 561
BSTAR          = -.37986573E-1
MEAN_MOTION_DOT = -.1937014E-1
MEAN_MOTION_DDOT = 0

CCSDS_OMM_VERS = 2.0
CREATION_DATE  = 
ORIGINATOR     = 

OBJECT_NAME    = STARLINK-36723
OBJECT_ID      = 2026-036M
CENTER_NAME    = EARTH
REF_FRAME      = TEME
TIME_SYSTEM    = UTC
MEAN_ELEMENT_THEORY = SGP/SGP4

EPOCH          = 2026-03-21T22:00:00.999936
MEAN_MOTION    = 15.45807705
ECCENTRICITY   = .0001458
INCLINATION    = 42.9994
RA_OF_ASC_NODE = 176.4552
ARG_OF_PERICENTER = 279.2973
MEAN_ANOMALY   = 278.7188

EPHEMERIS_TYPE = 0
CLASSIFICATION_TYPE = U
NORAD_CAT_ID   = 67915
ELEMENT_SET_NO = 999
REV_AT_EPOCH   = 561
BSTAR          = -.4412208E-1
MEAN_MOTION_DOT = -.1958597E-1
MEAN_MOTION_DDOT = 0

CCSDS_OMM_VERS = 2.0
CREATION_DATE  = 
ORIGINATOR     = 

OBJECT_NAME    = STARLINK-36721
OBJECT_ID      = 2026-036N
CENTER_NAME    = EARTH
REF_FRAME      = TEME
TIME_SYSTEM    = UTC
MEAN_ELEMENT_THEORY = SGP/SGP4

EPOCH          = 2026-03-21T22:00:00.999936
MEAN_MOTION    = 15.44633618
ECCENTRICITY   = .00013764
INCLINATION    = 42.9992
RA_OF_ASC_NODE = 176.4444
ARG_OF_PERICENTER = 275.8005
MEAN_ANOMALY   = 286.2758

EPHEMERIS_TYPE = 0
CLASSIFICATION_TYPE = U
NORAD_CAT_ID   = 67916
ELEMENT_SET_NO = 999
REV_AT_EPOCH   = 561
BSTAR          = -.4588418E-1
MEAN_MOTION_DOT = -.1956059E-1
MEAN_MOTION_DDOT = 0

CCSDS_OMM_VERS = 2.0
CREATION_DATE  = 
ORIGINATOR     = 

OBJECT_NAME    = STARLINK-36722
OBJECT_ID      = 2026-036P
CENTER_NAME    = EARTH
REF_FRAME      = TEME
TIME_SYSTEM    = UTC
MEAN_ELEMENT_THEORY = SGP/SGP4

EPOCH          = 2026-03-21T22:00:00.999936
MEAN_MOTION    = 15.45435212
ECCENTRICITY   = .00014396
INCLINATION    = 43.0000
RA_OF_ASC_NODE = 176.2154
ARG_OF_PERICENTER = 268.2243
MEAN_ANOMALY   = 26.6264

EPHEMERIS_TYPE = 0
CLASSIFICATION_TYPE = U
NORAD_CAT_ID   = 67917
ELEMENT_SET_NO = 999
REV_AT_EPOCH   = 561
BSTAR          = -.44468434E-1
MEAN_MOTION_DOT = -.1949678E-1
MEAN_MOTION_DDOT = 0

CCSDS_OMM_VERS = 2.0
CREATION_DATE  = 
ORIGINATOR     = 

OBJECT_NAME    = STARLINK-36341
OBJECT_ID      = 2026-036Q
CENTER_NAME    = EARTH
REF_FRAME      = TEME
TIME_SYSTEM    = UTC
MEAN_ELEMENT_THEORY = SGP/SGP4

EPOCH          = 2026-03-21T16:30:43.207776
MEAN_MOTION    = 15.50611199
ECCENTRICITY   = .00015857
INCLINATION    = 43.0012
RA_OF_ASC_NODE = 178.6798
ARG_OF_PERICENTER = 267.5258
MEAN_ANOMALY   = 92.5421

EPHEMERIS_TYPE = 0
CLASSIFICATION_TYPE = U
NORAD_CAT_ID   = 67918
ELEMENT_SET_NO = 999
REV_AT_EPOCH   = 554
BSTAR          = .19120006E-2
MEAN_MOTION_DOT = .113598E-2
MEAN_MOTION_DDOT = 0

CCSDS_OMM_VERS = 2.0
CREATION_DATE  = 
ORIGINATOR     = 

OBJECT_NAME    = STARLINK-36663
OBJECT_ID      = 2026-036R
CENTER_NAME    = EARTH
REF_FRAME      = TEME
TIME_SYSTEM    = UTC
MEAN_ELEMENT_THEORY = SGP/SGP4

EPOCH          = 2026-03-21T22:00:00.999936
MEAN_MOTION    = 15.44017850
ECCENTRICITY   = .00011384
INCLINATION    = 42.9997
RA_OF_ASC_NODE = 176.4112
ARG_OF_PERICENTER = 278.0474
MEAN_ANOMALY   = 296.8991

EPHEMERIS_TYPE = 0
CLASSIFICATION_TYPE = U
NORAD_CAT_ID   = 67919
ELEMENT_SET_NO = 999
REV_AT_EPOCH   = 561
BSTAR          = -.46879345E-1
MEAN_MOTION_DOT = -.1956469E-1
MEAN_MOTION_DDOT = 0

CCSDS_OMM_VERS = 2.0
CREATION_DATE  = 
ORIGINATOR     = 

OBJECT_NAME    = STARLINK-36375
OBJECT_ID      = 2026-036S
CENTER_NAME    = EARTH
REF_FRAME      = TEME
TIME_SYSTEM    = UTC
MEAN_ELEMENT_THEORY = SGP/SGP4

EPOCH          = 2026-03-21T22:00:00.999936
MEAN_MOTION    = 15.41102344
ECCENTRICITY   = .00016996
INCLINATION    = 43.0002
RA_OF_ASC_NODE = 176.8306
ARG_OF_PERICENTER = 283.6330
MEAN_ANOMALY   = 121.5237

EPHEMERIS_TYPE = 0
CLASSIFICATION_TYPE = U
NORAD_CAT_ID   = 67920
ELEMENT_SET_NO = 999
REV_AT_EPOCH   = 561
BSTAR          = -.50977897E-1
MEAN_MOTION_DOT = -.1930484E-1
MEAN_MOTION_DDOT = 0

CCSDS_OMM_VERS = 2.0
CREATION_DATE  = 
ORIGINATOR     = 

OBJECT_NAME    = STARLINK-36405
OBJECT_ID      = 2026-036T
CENTER_NAME    = EARTH
REF_FRAME      = TEME
TIME_SYSTEM    = UTC
MEAN_ELEMENT_THEORY = SGP/SGP4

EPOCH          = 2026-03-21T13:21:32.188320
MEAN_MOTION    = 15.50654118
ECCENTRICITY   = .00023858
INCLINATION    = 43.0020
RA_OF_ASC_NODE = 179.4120
ARG_OF_PERICENTER = 267.2981
MEAN_ANOMALY   = 92.7606

EPHEMERIS_TYPE = 0
CLASSIFICATION_TYPE = U
NORAD_CAT_ID   = 67921
ELEMENT_SET_NO = 999
REV_AT_EPOCH   = 552
BSTAR          = .19150904E-2
MEAN_MOTION_DOT = .113966E-2
MEAN_MOTION_DDOT = 0

